NORAD_CAT_ID,OBJECT_NAME,OBJECT_TYPE,EPOCH,MEAN_MOTION,ECCENTRICITY,INCLINATION,RA_OF_ASC_NODE,ARG_OF_PERICENTER,MEAN_ANOMALY,BSTAR,MEAN_MOTION_DOT,MEAN_MOTION_DDOT,TLE_LINE0,TLE_LINE1,TLE_LINE2,SEMIMAJOR_AXIS,PERIOD,APOGEE,PERIGEE,DECAYED
51802.0,STARLINK-3557,PAYLOAD,2022-05-16 14:00:01,15.08857153,0.0002117,53.2183,123.004,46.6005,165.5063,-0.0017547,-0.0002812,0.0,0 STARLINK-3557,1 51802U 22017AL  22136.58334491 -.00028120  00000-0 -17547-2 0  9990,2 51802  53.2183 123.0040 0002117  46.6005 165.5063 15.08857153  1305,6917.828,95.436,541.1569999999998,538.2280000000002,0.0
51802.0,STARLINK-3557,PAYLOAD,2022-05-16 22:00:00,15.08839906,0.0002023,53.2186,121.5065,52.592,171.125,0.0020837,0.0003303,0.0,0 STARLINK-3557,1 51802U 22017AL  22136.91667824  .00033030  00000-0  20837-2 0  9996,2 51802  53.2186 121.5065 0002023  52.5920 171.1250 15.08839906  1303,6917.880999999999,95.438,541.145,538.346,0.0
51802.0,STARLINK-3557,PAYLOAD,2022-05-17 14:00:01,15.0888452,0.0002111,53.2188,118.5149,46.7564,200.2435,-0.0046793999999999,-0.00074088,0.0,0 STARLINK-3557,1 51802U 22017AL  22137.58335648 -.00074088  00000-0 -46794-2 0  9996,2 51802  53.2188 118.5149 0002111  46.7564 200.2435 15.08884520  1302,6917.744000000002,95.435,541.07,538.149,0.0
51802.0,STARLINK-3557,PAYLOAD,2022-05-17 20:00:01,15.08821316,0.0001984,53.219,117.3916,49.9088,115.7547,0.0028254,0.00044943,0.0,0 STARLINK-3557,1 51802U 22017AL  22137.83334491  .00044943  00000-0  28254-2 0  9995,2 51802  53.2190 117.3916 0001984  49.9088 115.7547 15.08821316 13791,6917.937,95.439,541.175,538.43,0.0
51802.0,STARLINK-3557,PAYLOAD,2022-05-17 22:00:01,15.08833795,0.0002004,53.2192,117.0175,51.5411,207.0781,0.0021224,0.00033646,0.0,0 STARLINK-3557,1 51802U 22017AL  22137.91668981  .00033646  00000-0  21224-2 0  9996,2 51802  53.2192 117.0175 0002004  51.5411 207.0781 15.08833795  1303,6917.899,95.438,541.151,538.378,0.0
51802.0,STARLINK-3557,PAYLOAD,2022-05-18 12:00:00,15.08846308,0.0002122,53.2194,114.4008,44.155,144.7135,-0.00097392,-0.00015758,0.0,0 STARLINK-3557,1 51802U 22017AL  22138.50001157 -.00015758  00000-0 -97392-3 0  9994,2 51802  53.2194 114.4008 0002122  44.1550 144.7135 15.08846308 13907,6917.861,95.437,541.194,538.258,0.0
51802.0,STARLINK-3557,PAYLOAD,2022-05-18 14:00:01,15.08849857,0.0002056,53.2196,114.0262,45.0621,236.7049,-0.0017624,-0.00028236,0.0,0 STARLINK-3557,1 51802U 22017AL  22138.58334491 -.00028236  00000-0 -17624-2 0  9996,2 51802  53.2196 114.0262 0002056  45.0621 236.7049 15.08849857  1301,6917.85,95.437,541.138,538.293,0.0
51802.0,STARLINK-3557,PAYLOAD,2022-05-18 22:00:00,15.088474800000002,0.0001933,53.22,112.529,49.6457,243.7155,-0.0012710999999999,-0.00020465,0.0,0 STARLINK-3557,1 51802U 22017AL  22138.91667824 -.00020465  00000-0 -12711-2 0  9990,2 51802  53.2200 112.5290 0001933  49.6457 243.7155 15.08847480  1307,6917.858,95.437,541.06,538.385,0.0
51802.0,STARLINK-3557,PAYLOAD,2022-05-19 14:00:01,15.08846166,0.0002022,53.2203,109.5376,44.2017,272.3869,-0.0016456,-0.00026387,0.0,0 STARLINK-3557,1 51802U 22017AL  22139.58335648 -.00026387  00000-0 -16456-2 0  9999,2 51802  53.2203 109.5376 0002022  44.2017 272.3869 15.08846166  1304,6917.861999999999,95.437,541.125,538.328,0.0
51802.0,STARLINK-3557,PAYLOAD,2022-05-19 20:00:01,15.08855524,0.0001912,53.2187,108.4172,46.7352,188.4858,-0.0066386,-0.00104459,0.0,0 STARLINK-3557,1 51802U 22017AL  22139.83334491 -.00104459  00000-0 -66386-2 0  9996,2 51802  53.2187 108.4172 0001912  46.7352 188.4858 15.08855524 14108,6917.833000000001,95.437,541.021,538.375,0.0
51802.0,STARLINK-3557,PAYLOAD,2022-05-19 22:00:00,15.08808472,0.0001977,53.2187,108.0436,47.6518,280.4747,-0.0010983,-0.0001771,0.0,0 STARLINK-3557,1 51802U 22017AL  22139.91667824 -.00017710  00000-0 -10983-2 0  9999,2 51802  53.2187 108.0436 0001977  47.6518 280.4747 15.08808472  1300,6917.977,95.44,541.2090000000002,538.474,0.0
51802.0,STARLINK-3557,PAYLOAD,2022-05-20 04:00:00,15.08824661,0.000201,53.2207,106.9201,43.6311,203.1843,-0.00016406,-2.897e-05,0.0,0 STARLINK-3557,1 51802U 22017AL  22140.16667824 -.00002897  00000-0 -16406-3 0  9995,2 51802  53.2207 106.9201 0002010  43.6311 203.1843 15.08824661 14150,6917.927,95.439,541.183,538.4019999999998,0.0
51802.0,STARLINK-3557,PAYLOAD,2022-05-20 14:00:01,15.08849341,0.0001962,53.2208,105.0492,44.3668,306.9177,-0.0014109,-0.00022679,0.0,0 STARLINK-3557,1 51802U 22017AL  22140.58334491 -.00022679  00000-0 -14109-2 0  9999,2 51802  53.2208 105.0492 0001962  44.3668 306.9177 15.08849341  1308,6917.852,95.437,541.0740000000002,538.36,0.0
51802.0,STARLINK-3557,PAYLOAD,2022-05-20 20:00:01,15.08838274,0.000189,53.2209,103.9261,49.7623,220.2216,0.00018071,2.589e-05,0.0,0 STARLINK-3557,1 51802U 22017AL  22140.83334491  .00002589  00000-0  18071-3 0  9996,2 51802  53.2209 103.9261 0001890  49.7623 220.2216 15.08838274 14253,6917.886,95.438,541.058,538.443,0.0
51802.0,STARLINK-3557,PAYLOAD,2022-05-20 22:00:00,15.08853368,0.0001913,53.2208,103.5526,50.6009,312.2765,-0.0016608,-0.00026633,0.0,0 STARLINK-3557,1 51802U 22017AL  22140.91667824 -.00026633  00000-0 -16608-2 0  9995,2 51802  53.2208 103.5526 0001913  50.6009 312.2765 15.08853368  1301,6917.84,95.437,541.028,538.381,0.0
51802.0,STARLINK-3557,PAYLOAD,2022-05-21 06:00:00,15.08820695,0.0002144,53.2211,102.058,47.3902,327.0977,0.0017589,0.00027801,0.0,0 STARLINK-3557,1 51802U 22017AL  22141.25001157  .00027801  00000-0  17589-2 0  9999,2 51802  53.2211 102.0580 0002144  47.3902 327.0977 15.08820695  1307,6917.939,95.439,541.288,538.321,0.0
51802.0,STARLINK-3557,PAYLOAD,2022-05-21 14:00:01,15.08868258,0.0001981,53.2208,100.5604,48.8188,337.3197,-0.0025519,-0.00040705,0.0,0 STARLINK-3557,1 51802U 22017AL  22141.58335648 -.00040705  00000-0 -25519-2 0  9992,2 51802  53.2208 100.5604 0001981  48.8188 337.3197 15.08868258  1308,6917.794,95.436,541.029,538.289,0.0
51802.0,STARLINK-3557,PAYLOAD,2022-05-21 22:00:00,15.08840965,0.0001844,53.221,99.0639,52.4934,345.1947,0.00083841,0.00013081,0.0,0 STARLINK-3557,1 51802U 22017AL  22141.91667824  .00013081  00000-0  83841-3 0  9991,2 51802  53.2210  99.0639 0001844  52.4934 345.1947 15.08840965  1304,6917.877,95.437,541.018,538.467,0.0
51802.0,STARLINK-3557,PAYLOAD,2022-05-22 04:00:00,15.0885066,0.0001966,53.2207,97.9432,47.1495,269.2359,-0.0013315999999999,-0.00021425,0.0,0 STARLINK-3557,1 51802U 22017AL  22142.16667824 -.00021425  00000-0 -13316-2 0  9991,2 51802  53.2207  97.9432 0001966  47.1495 269.2359 15.08850660 14452,6917.848000000001,95.437,541.073,538.3530000000002,0.0
51802.0,STARLINK-3557,PAYLOAD,2022-05-22 14:00:01,15.08848166,0.0001761,53.2204,96.0717,47.0902,13.7963,-0.0022958,-0.00036649,0.0,0 STARLINK-3557,1 51802U 22017AL  22142.58334491 -.00036649  00000-0 -22958-2 0  9994,2 51802  53.2204  96.0717 0001761  47.0902  13.7963 15.08848166  1301,6917.855,95.437,540.939,538.502,0.0
51802.0,STARLINK-3557,PAYLOAD,2022-05-22 22:00:01,15.08831777,0.0001641999999999,53.2205,94.5753,50.0155,22.5257,0.00032357,4.864e-05,0.0,0 STARLINK-3557,1 51802U 22017AL  22142.91668981  .00004864  00000-0  32357-3 0  9992,2 51802  53.2205  94.5753 0001642  50.0155  22.5257 15.08831777  1301,6917.906,95.438,540.906,538.635,0.0
51802.0,STARLINK-3557,PAYLOAD,2022-05-23 04:00:00,15.08824193,0.0001821,53.2202,93.4546,45.1815,305.9838,0.00066406,0.00010292,0.0,0 STARLINK-3557,1 51802U 22017AL  22143.16667824  .00010292  00000-0  66406-3 0  9999,2 51802  53.2202  93.4546 0001821  45.1815 305.9838 15.08824193 14607,6917.929,95.439,541.053,538.534,0.0
51802.0,STARLINK-3557,PAYLOAD,2022-05-23 14:00:01,15.08848714,0.000176,53.2199,91.583,49.3745,46.2677,-0.0029294,-0.0004662,0.0,0 STARLINK-3557,1 51802U 22017AL  22143.58334491 -.00046620  00000-0 -29294-2 0  9995,2 51802  53.2199  91.5830 0001760  49.3745  46.2677 15.08848714  1301,6917.854,95.437,540.936,538.501,0.0
51802.0,STARLINK-3557,PAYLOAD,2022-05-23 22:00:01,15.088680300000002,0.0001743,53.22,90.0866,52.8781,54.4207,-0.0028777,-0.00045831,0.0,0 STARLINK-3557,1 51802U 22017AL  22143.91668981 -.00045831  00000-0 -28777-2 0  9994,2 51802  53.2200  90.0866 0001743  52.8781  54.4207 15.08868030  1300,6917.795,95.436,540.865,538.4540000000002,0.0
51802.0,STARLINK-3557,PAYLOAD,2022-05-24 12:00:00,15.08858693,0.0001831,53.2196,87.4685,48.3529,349.1791,-0.0041071,-0.00065096,0.0,0 STARLINK-3557,1 51802U 22017AL  22144.50001157 -.00065096  00000-0 -41071-2 0  9993,2 51802  53.2196  87.4685 0001831  48.3529 349.1791 15.08858693 14806,6917.823,95.436,540.955,538.422,0.0
51802.0,STARLINK-3557,PAYLOAD,2022-05-24 14:00:01,15.08828336,0.0001748,53.2197,87.094,50.3005,80.139,-0.00080401,-0.00013057,0.0,0 STARLINK-3557,1 51802U 22017AL  22144.58334491 -.00013057  00000-0 -80401-3 0  9992,2 51802  53.2197  87.0940 0001748  50.3005  80.1390 15.08828336  1305,6917.916,95.438,540.99,538.572,0.0
51802.0,STARLINK-3557,PAYLOAD,2022-05-24 20:00:01,15.08830708,0.0001774999999999,53.2198,85.9714,54.4179,354.7642,-0.00080029,-0.00012999,0.0,0 STARLINK-3557,1 51802U 22017AL  22144.83335648 -.00012999  00000-0 -80029-3 0  9995,2 51802  53.2198  85.9714 0001775  54.4179 354.7642 15.08830708 14859,6917.909000000002,95.438,541.002,538.5459999999998,0.0
51802.0,STARLINK-3557,PAYLOAD,2022-05-24 22:00:00,15.08842693,0.0001818,53.2199,85.5977,54.4134,87.5975,-0.0028655,-0.00045608,0.0,0 STARLINK-3557,1 51802U 22017AL  22144.91667824 -.00045608  00000-0 -28655-2 0  9997,2 51802  53.2199  85.5977 0001818  54.4134  87.5975 15.08842693  1308,6917.871999999999,95.437,540.995,538.479,0.0
51802.0,STARLINK-3557,PAYLOAD,2022-05-25 14:00:01,15.08821674,0.0001864,53.22,82.6051,53.0607,112.0994,0.0010164999999999,0.00015919,0.0,0 STARLINK-3557,1 51802U 22017AL  22145.58334491  .00015919  00000-0  10165-2 0  9999,2 51802  53.2200  82.6051 0001864  53.0607 112.0994 15.08821674  1304,6917.936,95.439,541.091,538.512,0.0
